0 STARLETTE
1 07646U 75010A   13283.17640547 -.00000142  00000-0 -82390-6 0  3662
2 07646 049.8262 030.9017 0205754 238.5669 193.0579 13.82286169953678
0 STARLETTE
1 07646U 75010A   13285.79775663 -.00000128  00000-0  96806-5 0  3681
2 07646 049.8263 020.5569 0205752 247.2225 277.5019 13.82286076954034
0 STARLETTE
1 07646U 75010A   13286.79894766 -.00000120  00000-0  15801-4 0  3696
2 07646 049.8262 016.6058 0205756 250.5287 219.6575 13.82286031954171
0 STARLETTE
1 07646U 75010A   13288.16736383 -.00000111  00000-0  22918-4 0  3708
2 07646 049.8261 011.2054 0205765 255.0468 189.2102 13.82285970954368
0 STARLETTE
1 07646U 75010A   13289.18098182 -.00000116  00000-0  19075-4 0  3715
2 07646 049.8260 007.2052 0205769 258.3931 193.2055 13.82286116954506
0 STARLETTE
1 07646U 75010A   13290.48907384 -.00000116  00000-0  19490-4 0  3725
2 07646 049.8258 002.0429 0205772 262.7135 222.5701 13.82286149954682
0 STARLETTE
1 07646U 75010A   13291.50257696 -.00000124  00000-0  13144-4 0  3733
2 07646 049.8257 358.0431 0205767 266.0618 225.9917 13.82286255954825
0 STARLETTE
1 07646U 75010A   13292.51838703 -.00000128  00000-0  10166-4 0  3745
2 07646 049.8256 354.0342 0205783 269.4216 240.8899 13.82286309954960
0 STARLETTE
1 07646U 75010A   13293.67513433 -.00000127  00000-0  11052-4 0  3758
2 07646 049.8255 349.4691 0205778 273.2422 237.1290 13.82286365955125
0 STARLETTE
1 07646U 75010A   13295.18339623 -.00000133  00000-0  59356-5 0  3761
2 07646 049.8253 343.5167 0205772 278.2220 182.5874 13.82286378955339
0 STARLETTE
1 07646U 75010A   13296.19661699 -.00000118  00000-0  17966-4 0  3778
2 07646 049.8252 339.5180 0205776 281.5702 184.6050 13.82286339955475
